<osm version="0.6" generator="OpenStreetMap server" copyright="OpenStreetMap and contributors" attribution="http://www.openstreetmap.org/copyright" license="http://opendatacommons.org/licenses/odbl/1-0/">
  <node id="1361530494" version="2" changeset="9333173" lat="53.2400989" lon="50.2062682" user="AKhranovskiy" uid="231156" visible="true" timestamp="2011-09-18T14:14:31Z">
    <tag k="name" v="11-й микрорайон"/>
    <tag k="bus" v="yes"/>
    <tag k="public_transport" v="stop_position"/>
    <tag k="highway" v="bus_stop"/>
    <tag k="trolleybus" v="yes"/>
  </node>
  <node id="249655210" version="5" changeset="338090" lat="53.240378" lon="50.2066176" user="Andrey Pershin" uid="91032" visible="true" timestamp="2009-02-10T14:44:08Z">
    <tag k="created_by" v="JOSM"/>
    <tag k="highway" v="traffic_signals"/>
  </node>
  <way id="121707871" visible="true" timestamp="2013-02-26T18:17:09Z" version="6" changeset="15176529" user="NickF" uid="467146">
    <nd ref="1361530494"/>
    <nd ref="249655210"/>
    <tag k="highway" v="primary"/>
    <tag k="lanes" v="7"/>
    <tag k="lit" v="yes"/>
    <tag k="maxspeed" v="60"/>
    <tag k="name" v="Московское шоссе"/>
    <tag k="ref" v="36К-887"/>
    <tag k="trolley_wire" v="yes"/>
  </way>
</osm>