<osm version="0.6" generator="OpenStreetMap server" copyright="OpenStreetMap and contributors" attribution="http://www.openstreetmap.org/copyright" license="http://opendatacommons.org/licenses/odbl/1-0/">
  <node id="1361530482" version="3" changeset="11292988" lat="53.2552979" lon="50.229484" user="gentoid" uid="492771" visible="true" timestamp="2012-04-13T21:50:04Z">
    <tag k="highway" v="bus_stop"/>
    <tag k="name" v="улица Георгия Димитрова"/>
    <tag k="bus" v="yes"/>
    <tag k="public_transport" v="stop_position"/>
  </node>
  <node id="154520231" version="12" changeset="11292988" lat="53.2558109" lon="50.2303323" user="gentoid" uid="492771" visible="true" timestamp="2012-04-13T21:50:08Z">
    <tag k="highway" v="traffic_signals"/>
    <tag k="crossing" v="traffic_signals"/>
    <tag k="merkator_shift:bing" v="13.32; 0.83"/>
  </node>
  <way id="121707869" visible="true" timestamp="2013-02-26T18:06:13Z" version="6" changeset="15176413" user="NickF" uid="467146">
    <nd ref="1361530482"/>
    <nd ref="154520231"/>
    <tag k="highway" v="primary"/>
    <tag k="lanes" v="7"/>
    <tag k="lit" v="yes"/>
    <tag k="maxspeed" v="60"/>
    <tag k="name" v="Московское шоссе"/>
    <tag k="ref" v="36К-887"/>
  </way>
</osm>