<osm version="0.6" generator="OpenStreetMap server" copyright="OpenStreetMap and contributors" attribution="http://www.openstreetmap.org/copyright" license="http://opendatacommons.org/licenses/odbl/1-0/">
  <node id="1361530123" version="2" changeset="9333173" lat="53.2785493" lon="50.2717257" user="AKhranovskiy" uid="231156" visible="true" timestamp="2011-09-18T14:14:14Z">
    <tag k="name" v="ТК &quot;Московский&quot;"/>
    <tag k="bus" v="yes"/>
    <tag k="public_transport" v="stop_position"/>
    <tag k="highway" v="bus_stop"/>
  </node>
  <node id="1489363113" version="1" changeset="9719909" lat="53.2786305" lon="50.2719239" user="AKhranovskiy" uid="231156" visible="true" timestamp="2011-11-02T09:10:26Z">
    <tag k="highway" v="traffic_signals"/>
    <tag k="crossing" v="traffic_signals"/>
  </node>
  <node id="293583420" version="3" changeset="7573064" lat="53.2787667" lon="50.2722564" user="AKhranovskiy" uid="231156" visible="true" timestamp="2011-03-16T07:49:40Z"/>
  <way id="121707887" visible="true" timestamp="2013-02-26T17:59:37Z" version="7" changeset="15176341" user="NickF" uid="467146">
    <nd ref="1361530123"/>
    <nd ref="1489363113"/>
    <nd ref="293583420"/>
    <tag k="highway" v="primary"/>
    <tag k="lanes" v="6"/>
    <tag k="lit" v="yes"/>
    <tag k="maxspeed" v="60"/>
    <tag k="name" v="Московское шоссе"/>
    <tag k="ref" v="36К-887"/>
  </way>
</osm>