<osm version="0.6" generator="OpenStreetMap server" copyright="OpenStreetMap and contributors" attribution="http://www.openstreetmap.org/copyright" license="http://opendatacommons.org/licenses/odbl/1-0/">
  <node id="1361530484" version="5" changeset="10119170" lat="53.2032952" lon="50.1481437" user="gentoid" uid="492771" visible="true" timestamp="2011-12-14T20:29:40Z">
    <tag k="name" v="Киевская улица / Рынок &quot;Караван&quot;"/>
    <tag k="bus" v="yes"/>
    <tag k="public_transport" v="stop_position"/>
    <tag k="highway" v="bus_stop"/>
    <tag k="trolleybus" v="yes"/>
  </node>
  <node id="143971509" version="9" changeset="10326675" lat="53.2033274" lon="50.1491044" user="gentoid" uid="492771" visible="true" timestamp="2012-01-07T22:50:53Z">
    <tag k="highway" v="traffic_signals"/>
    <tag k="merkator_shift:bing" v="18.68; 4.83"/>
  </node>
  <way id="121707878" visible="true" timestamp="2013-01-28T08:58:36Z" version="6" changeset="14818954" user="NickF" uid="467146">
    <nd ref="1361530484"/>
    <nd ref="143971509"/>
    <tag k="highway" v="primary"/>
    <tag k="lanes" v="4"/>
    <tag k="lit" v="yes"/>
    <tag k="maxspeed" v="60"/>
    <tag k="name" v="Московское шоссе"/>
    <tag k="ref" v="36К-887"/>
    <tag k="trolley_wire" v="yes"/>
  </way>
</osm>