<osm version="0.6" generator="OpenStreetMap server" copyright="OpenStreetMap and contributors" attribution="http://www.openstreetmap.org/copyright" license="http://opendatacommons.org/licenses/odbl/1-0/">
  <node id="1408594540" version="2" changeset="9333173" lat="53.2266892" lon="50.1745517" user="AKhranovskiy" uid="231156" visible="true" timestamp="2011-09-18T14:14:01Z">
    <tag k="name" v="Загородный парк"/>
    <tag k="bus" v="yes"/>
    <tag k="public_transport" v="stop_position"/>
    <tag k="highway" v="bus_stop"/>
  </node>
  <node id="237356683" version="6" changeset="12980090" lat="53.226984" lon="50.1749925" user="Serĉjo" uid="639542" visible="true" timestamp="2012-09-04T10:51:28Z">
    <tag k="highway" v="crossing"/>
  </node>
  <way id="127212499" visible="true" timestamp="2013-01-21T19:49:53Z" version="5" changeset="14737513" user="NickF" uid="467146">
    <nd ref="1408594540"/>
    <nd ref="237356683"/>
    <tag k="highway" v="primary"/>
    <tag k="lanes" v="3"/>
    <tag k="lit" v="yes"/>
    <tag k="maxspeed" v="50"/>
    <tag k="name" v="Ново-Садовая улица"/>
    <tag k="oneway" v="yes"/>
    <tag k="ref" v="К-888"/>
  </way>
</osm>