<osm version="0.6" generator="OpenStreetMap server" copyright="OpenStreetMap and contributors" attribution="http://www.openstreetmap.org/copyright" license="http://opendatacommons.org/licenses/odbl/1-0/">
  <node id="1361530104" version="2" changeset="9333173" lat="53.2989873" lon="50.2875617" user="AKhranovskiy" uid="231156" visible="true" timestamp="2011-09-18T14:14:05Z">
    <tag k="name" v="Мехзавод"/>
    <tag k="bus" v="yes"/>
    <tag k="public_transport" v="stop_position"/>
    <tag k="highway" v="bus_stop"/>
  </node>
  <node id="540718475" version="2" changeset="7377785" lat="53.3006806" lon="50.2880826" user="AKhranovskiy" uid="231156" visible="true" timestamp="2011-02-23T23:12:59Z"/>
  <way id="121707870" visible="true" timestamp="2013-02-26T17:59:36Z" version="6" changeset="15176341" user="NickF" uid="467146">
    <nd ref="1361530104"/>
    <nd ref="540718475"/>
    <tag k="highway" v="primary"/>
    <tag k="lanes" v="3"/>
    <tag k="lit" v="yes"/>
    <tag k="maxspeed" v="60"/>
    <tag k="name" v="Московское шоссе"/>
    <tag k="oneway" v="yes"/>
    <tag k="ref" v="36К-887"/>
  </way>
</osm>